[{"OBJECT_NAME":"YAOGAN-43 01D","OBJECT_ID":"2024-148D","EPOCH":"2026-03-09T10:27:16.254720","MEAN_MOTION":15.28369377,"ECCENTRICITY":0.00025569,"INCLINATION":35.001,"RA_OF_ASC_NODE":61.7102,"ARG_OF_PERICENTER":326.2473,"MEAN_ANOMALY":33.808,"EPHEMERIS_TYPE":0,"CLASSIFICATION_TYPE":"U","NORAD_CAT_ID":60461,"ELEMENT_SET_NO":999,"REV_AT_EPOCH":8700,"BSTAR":0.00037765912,"MEAN_MOTION_DOT":0.00010676,"MEAN_MOTION_DDOT":0},{"OBJECT_NAME":"STARLINK-33630","OBJECT_ID":"2025-070T","EPOCH":"2026-03-09T12:47:13.243488","MEAN_MOTION":15.27568423,"ECCENTRICITY":0.00014983,"INCLINATION":42.9982,"RA_OF_ASC_NODE":257.0985,"ARG_OF_PERICENTER":254.5646,"MEAN_ANOMALY":105.504,"EPHEMERIS_TYPE":0,"CLASSIFICATION_TYPE":"U","NORAD_CAT_ID":63477,"ELEMENT_SET_NO":999,"REV_AT_EPOCH":5299,"BSTAR":0.001462945,"MEAN_MOTION_DOT":0.00040201,"MEAN_MOTION_DDOT":0}]
